start=new Date('2023-05-31T00:00:00.000Z').valueOf();
sats=[{"DECAY_DATE":null,"PERIOD":"95.591","RA_OF_ASC_NODE":"57.4885","TLE_LINE2":"2 44713  53.0555  57.4885 0001277  70.8903 289.2224 15.06414295195950","GP_ID":"232848675","ELEMENT_SET_NO":"999","PERIAPSIS":"546.285","REF_FRAME":"TEME","MEAN_ANOMALY":"289.2224","SEMIMAJOR_AXIS":"6925.305","MEAN_ELEMENT_THEORY":"SGP4","BSTAR":"0.00116940000000","SITE":"AFETR","CLASSIFICATION_TYPE":"U","LAUNCH_DATE":"2019-11-11","RCS_SIZE":"LARGE","ECCENTRICITY":"0.00012770","APOAPSIS":"548.054","ARG_OF_PERICENTER":"70.8903","REV_AT_EPOCH":"19595","EPHEMERIS_TYPE":"0","TIME_SYSTEM":"UTC","INCLINATION":"53.0555","MEAN_MOTION":"15.06414295","OBJECT_TYPE":"PAYLOAD","MEAN_MOTION_DDOT":"0.0000000000000","OBJECT_ID":"2019-074A","FILE":"3921192","COUNTRY_CODE":"US","MEAN_MOTION_DOT":"0.00017186","CENTER_NAME":"EARTH","OBJECT_NAME":"STARLINK-1007","TLE_LINE1":"1 44713U 19074A   23150.94539682  .00017186  00000-0  11694-2 0  9993","EPOCH":"2023-05-30T22:41:22.285248","NORAD_CAT_ID":"44713"},{"GP_ID":"232849426","TLE_LINE2":"2 44714  53.0540  57.5883 0001140 101.1109 259.0008 15.06410342195953","RA_OF_ASC_NODE":"57.5883","DECAY_DATE":null,"PERIOD":"95.591","SEMIMAJOR_AXIS":"6925.317","MEAN_ANOMALY":"259.0008","PERIAPSIS":"546.392","REF_FRAME":"TEME","ELEMENT_SET_NO":"999","CLASSIFICATION_TYPE":"U","SITE":"AFETR","BSTAR":"0.00102350000000","MEAN_ELEMENT_THEORY":"SGP4","ECCENTRICITY":"0.00011400","RCS_SIZE":"LARGE","LAUNCH_DATE":"2019-11-11","REV_AT_EPOCH":"19595","EPHEMERIS_TYPE":"0","ARG_OF_PERICENTER":"101.1109","APOAPSIS":"547.971","MEAN_MOTION":"15.06410342","OBJECT_TYPE":"PAYLOAD","INCLINATION":"53.0540","TIME_SYSTEM":"UTC","CENTER_NAME":"EARTH","MEAN_MOTION_DOT":"0.00015001","COUNTRY_CODE":"US","FILE":"3921192","OBJECT_ID":"2019-074B","MEAN_MOTION_DDOT":"0.0000000000000","NORAD_CAT_ID":"44714","EPOCH":"2023-05-30T22:10:52.954464","TLE_LINE1":"1 44714U 19074B   23150.92422401  .00015001  00000-0  10235-2 0  9996","OBJECT_NAME":"STARLINK-1008"},{"PERIOD":"95.591","DECAY_DATE":null,"RA_OF_ASC_NODE":"57.6394","TLE_LINE2":"2 44715  53.0553  57.6394 0001003 108.5259 251.5839 15.06410378195948","GP_ID":"232847674","ELEMENT_SET_NO":"999","PERIAPSIS":"546.487","REF_FRAME":"TEME","MEAN_ANOMALY":"251.5839","SEMIMAJOR_AXIS":"6925.317","MEAN_ELEMENT_THEORY":"SGP4","BSTAR":"0.00084357000000","SITE":"AFETR","CLASSIFICATION_TYPE":"U","LAUNCH_DATE":"2019-11-11","RCS_SIZE":"LARGE","ECCENTRICITY":"0.00010030","APOAPSIS":"547.876","ARG_OF_PERICENTER":"108.5259","REV_AT_EPOCH":"19594","EPHEMERIS_TYPE":"0","TIME_SYSTEM":"UTC","INCLINATION":"53.0553","OBJECT_TYPE":"PAYLOAD","MEAN_MOTION":"15.06410378","MEAN_MOTION_DDOT":"0.0000000000000","OBJECT_ID":"2019-074C","FILE":"3921192","COUNTRY_CODE":"US","MEAN_MOTION_DOT":"0.00012309","CENTER_NAME":"EARTH","TLE_LINE1":"1 44715U 19074C   23150.91316421  .00012309  00000-0  84357-3 0  9995","OBJECT_NAME":"STARLINK-1009","EPOCH":"2023-05-30T21:54:57.387744","NORAD_CAT_ID":"44715"},{"ECCENTRICITY":"0.00010340","LAUNCH_DATE":"2019-11-11","RCS_SIZE":"LARGE","SITE":"AFETR","CLASSIFICATION_TYPE":"U","BSTAR":"0.00084721000000","MEAN_ELEMENT_THEORY":"SGP4","MEAN_ANOMALY":"244.8952","SEMIMAJOR_AXIS":"6925.322","REF_FRAME":"TEME","PERIAPSIS":"546.471","ELEMENT_SET_NO":"999","GP_ID":"232847924","RA_OF_ASC_NODE":"57.5570","TLE_LINE2":"2 44716  53.0547  57.5570 0001034 115.2144 244.8952 15.06408787195930","DECAY_DATE":null,"PERIOD":"95.592","NORAD_CAT_ID":"44716","EPOCH":"2023-05-30T22:21:29.786400","OBJECT_NAME":"STARLINK-1010","TLE_LINE1":"1 44716U 19074D   23150.93159475  .00012363  00000-0  84721-3 0  9997","CENTER_NAME":"EARTH","MEAN_MOTION_DOT":"0.00012363","FILE":"3921192","COUNTRY_CODE":"US","MEAN_MOTION_DDOT":"0.0000000000000","OBJECT_ID":"2019-074D","OBJECT_TYPE":"PAYLOAD","MEAN_MOTION":"15.06408787","INCLINATION":"53.0547","TIME_SYSTEM":"UTC","REV_AT_EPOCH":"19593","EPHEMERIS_TYPE":"0","ARG_OF_PERICENTER":"115.2144","APOAPSIS":"547.903"},{"PERIOD":"95.593","DECAY_DATE":null,"RA_OF_ASC_NODE":"80.8360","TLE_LINE2":"2 44717  53.0543  80.8360 0001049  91.2004 268.9105 15.06382180195561","GP_ID":"232814747","ELEMENT_SET_NO":"999","PERIAPSIS":"546.542","REF_FRAME":"TEME","MEAN_ANOMALY":"268.9105","SEMIMAJOR_AXIS":"6925.403","MEAN_ELEMENT_THEORY":"SGP4","BSTAR":"-0.00010696000000","SITE":"AFETR","CLASSIFICATION_TYPE":"U","LAUNCH_DATE":"2019-11-11","RCS_SIZE":"LARGE","ECCENTRICITY":"0.00010490","APOAPSIS":"547.995","ARG_OF_PERICENTER":"91.2004","REV_AT_EPOCH":"19556","EPHEMERIS_TYPE":"0","TIME_SYSTEM":"UTC","INCLINATION":"53.0543","MEAN_MOTION":"15.06382180","OBJECT_TYPE":"PAYLOAD","MEAN_MOTION_DDOT":"0.0000000000000","OBJECT_ID":"2019-074E","FILE":"3920920","COUNTRY_CODE":"US","MEAN_MOTION_DOT":"-0.00001873","CENTER_NAME":"EARTH","OBJECT_NAME":"STARLINK-1011","TLE_LINE1":"1 44717U 19074E   23150.19993600 -.00001873  00000-0 -10696-3 0  9998","EPOCH":"2023-05-30T04:47:54.470400","NORAD_CAT_ID":"44717"},{"MEAN_ELEMENT_THEORY":"SGP4","BSTAR":"0.00105700000000","CLASSIFICATION_TYPE":"U","SITE":"AFETR","RCS_SIZE":"LARGE","LAUNCH_DATE":"2019-11-11","ECCENTRICITY":"0.00012300","DECAY_DATE":null,"PERIOD":"95.592","TLE_LINE2":"2 44718  53.0551  57.6816 0001230  64.8409 295.2707 15.06397354195948","RA_OF_ASC_NODE":"57.6816","GP_ID":"232848926","ELEMENT_SET_NO":"999","REF_FRAME":"TEME","PERIAPSIS":"546.370","SEMIMAJOR_AXIS":"6925.357","MEAN_ANOMALY":"295.2707","OBJECT_ID":"2019-074F","MEAN_MOTION_DDOT":"0.0000000000000","COUNTRY_CODE":"US","FILE":"3921192","MEAN_MOTION_DOT":"0.00015496","CENTER_NAME":"EARTH","TLE_LINE1":"1 44718U 19074F   23150.90211290  .00015496  00000-0  10570-2 0  9990","OBJECT_NAME":"STARLINK-1012","EPOCH":"2023-05-30T21:39:02.554560","NORAD_CAT_ID":"44718","APOAPSIS":"548.073","ARG_OF_PERICENTER":"64.8409","REV_AT_EPOCH":"19594","EPHEMERIS_TYPE":"0","TIME_SYSTEM":"UTC","INCLINATION":"53.0551","OBJECT_TYPE":"PAYLOAD","MEAN_MOTION":"15.06397354"},{"SITE":"AFETR","CLASSIFICATION_TYPE":"U","BSTAR":"0.00108840000000","MEAN_ELEMENT_THEORY":"SGP4","ECCENTRICITY":"0.00010020","LAUNCH_DATE":"2019-11-11","RCS_SIZE":"LARGE","GP_ID":"232848175","RA_OF_ASC_NODE":"57.6492","TLE_LINE2":"2 44719  53.0549  57.6492 0001002 103.7116 256.3985 15.06411655197074","PERIOD":"95.591","DECAY_DATE":null,"MEAN_ANOMALY":"256.3985","SEMIMAJOR_AXIS":"6925.313","PERIAPSIS":"546.484","REF_FRAME":"TEME","ELEMENT_SET_NO":"999","CENTER_NAME":"EARTH","MEAN_MOTION_DOT":"0.00015972","FILE":"3921192","COUNTRY_CODE":"US","MEAN_MOTION_DDOT":"0.0000000000000","OBJECT_ID":"2019-074G","NORAD_CAT_ID":"44719","EPOCH":"2023-05-30T21:49:38.661600","OBJECT_NAME":"STARLINK-1013","TLE_LINE1":"1 44719U 19074G   23150.90947525  .00015972  00000-0  10884-2 0  9995","EPHEMERIS_TYPE":"0","REV_AT_EPOCH":"19707","ARG_OF_PERICENTER":"103.7116","APOAPSIS":"547.872","MEAN_MOTION":"15.06411655","OBJECT_TYPE":"PAYLOAD","INCLINATION":"53.0549","TIME_SYSTEM":"UTC"},{"CENTER_NAME":"EARTH","MEAN_MOTION_DOT":"0.00013950","COUNTRY_CODE":"US","FILE":"3921192","OBJECT_ID":"2019-074H","MEAN_MOTION_DDOT":"0.0000000000000","NORAD_CAT_ID":"44720","EPOCH":"2023-05-30T22:14:49.729344","OBJECT_NAME":"STARLINK-1014","TLE_LINE1":"1 44720U 19074H   23150.92696446  .00013950  00000-0  95333-3 0  9999","REV_AT_EPOCH":"19595","EPHEMERIS_TYPE":"0","ARG_OF_PERICENTER":"86.6904","APOAPSIS":"547.946","OBJECT_TYPE":"PAYLOAD","MEAN_MOTION":"15.06408609","INCLINATION":"53.0550","TIME_SYSTEM":"UTC","CLASSIFICATION_TYPE":"U","SITE":"AFETR","BSTAR":"0.00095333000000","MEAN_ELEMENT_THEORY":"SGP4","ECCENTRICITY":"0.00010960","RCS_SIZE":"LARGE","LAUNCH_DATE":"2019-11-11","GP_ID":"232848425","TLE_LINE2":"2 44720  53.0550  57.5621 0001096  86.6904 273.4211 15.06408609195950","RA_OF_ASC_NODE":"57.5621","DECAY_DATE":null,"PERIOD":"95.592","SEMIMAJOR_AXIS":"6925.322","MEAN_ANOMALY":"273.4211","PERIAPSIS":"546.428","REF_FRAME":"TEME","ELEMENT_SET_NO":"999"},{"LAUNCH_DATE":"2019-11-11","RCS_SIZE":"LARGE","ECCENTRICITY":"0.00011420","MEAN_ELEMENT_THEORY":"SGP4","SITE":"AFETR","CLASSIFICATION_TYPE":"U","BSTAR":"0.00081670000000","ELEMENT_SET_NO":"999","MEAN_ANOMALY":"256.8477","SEMIMAJOR_AXIS":"6925.325","PERIAPSIS":"546.399","REF_FRAME":"TEME","PERIOD":"95.592","DECAY_DATE":null,"GP_ID":"232848676","RA_OF_ASC_NODE":"57.6196","TLE_LINE2":"2 44721  53.0547  57.6196 0001142 103.2640 256.8477 15.06407617195946","EPOCH":"2023-05-30T22:00:15.867648","TLE_LINE1":"1 44721U 19074J   23150.91685032  .00011907  00000-0  81670-3 0  9997","OBJECT_NAME":"STARLINK-1015","NORAD_CAT_ID":"44721","FILE":"3921192","COUNTRY_CODE":"US","MEAN_MOTION_DDOT":"0.0000000000000","OBJECT_ID":"2019-074J","CENTER_NAME":"EARTH","MEAN_MOTION_DOT":"0.00011907","TIME_SYSTEM":"UTC","OBJECT_TYPE":"PAYLOAD","MEAN_MOTION":"15.06407617","INCLINATION":"53.0547","APOAPSIS":"547.981","EPHEMERIS_TYPE":"0","REV_AT_EPOCH":"19594","ARG_OF_PERICENTER":"103.2640"},{"OBJECT_NAME":"STARLINK-1017","TLE_LINE1":"1 44723U 19074L   23150.93527979  .00017100  00000-0  11637-2 0  9992","EPOCH":"2023-05-30T22:26:48.173856","NORAD_CAT_ID":"44723","OBJECT_ID":"2019-074L","MEAN_MOTION_DDOT":"0.0000000000000","COUNTRY_CODE":"US","FILE":"3921192","MEAN_MOTION_DOT":"0.00017100","CENTER_NAME":"EARTH","TIME_SYSTEM":"UTC","INCLINATION":"53.0546","OBJECT_TYPE":"PAYLOAD","MEAN_MOTION":"15.06412328","APOAPSIS":"547.916","ARG_OF_PERICENTER":"121.0029","EPHEMERIS_TYPE":"0","REV_AT_EPOCH":"19595","RCS_SIZE":"LARGE","LAUNCH_DATE":"2019-11-11","ECCENTRICITY":"0.00010690","MEAN_ELEMENT_THEORY":"SGP4","BSTAR":"0.00116370000000","CLASSIFICATION_TYPE":"U","SITE":"AFETR","ELEMENT_SET_NO":"999","PERIAPSIS":"546.435","REF_FRAME":"TEME","SEMIMAJOR_AXIS":"6925.311","MEAN_ANOMALY":"239.1065","DECAY_DATE":null,"PERIOD":"95.591","TLE_LINE2":"2 44723  53.0546  57.5388 0001069 121.0029 239.1065 15.06412328195959","RA_OF_ASC_NODE":"57.5388","GP_ID":"232849427"}];
